H1 CPF 01  gfz 2022 12 20 01  8541 tandemx   
H2 1003001  6202 36605    2022 12 20 00 59 42 2022 12 25 00 00 42   120 1 1  0 0 0
H9
10 0 59933  53262.000000  0   -3561424.007  -3019867.369  -5072340.981
10 0 59933  53382.000000  0   -3163560.396  -2408925.710  -5632522.074
10 0 59933  53502.000000  0   -2699800.333  -1763716.176  -6094251.493
10 0 59933  53622.000000  0   -2177742.601  -1096551.164  -6449553.184
10 0 59933  53742.000000  0   -1606191.943   -419956.146  -6692304.068
10 0 59933  53862.000000  0    -995009.264    253562.411  -6818327.399
10 0 59933  53982.000000  0    -354944.102    911742.315  -6825456.188
10 0 59933  54102.000000  0     302550.416   1542783.204  -6713566.414
10 0 59933  54222.000000  0     965516.224   2135552.082  -6484579.868
10 0 59933  54342.000000  0    1621703.516   2679776.479  -6142436.436
10 0 59933  54462.000000  0    2258792.476   3166221.014  -5693033.191
10 0 59933  54582.000000  0    2864621.250   3586844.443  -5144132.089
10 0 59933  54702.000000  0    3427416.042   3934935.140  -4505237.658
10 0 59933  54822.000000  0    3936021.087   4205223.866  -3787443.923
10 0 59933  54942.000000  0    4380123.297   4393969.773  -3003250.995
10 0 59933  55062.000000  0    4750466.095   4499017.161  -2166352.826
10 0 59933  55182.000000  0    5039046.878   4519821.140  -1291400.974
10 0 59933  55302.000000  0    5239294.407   4457441.411   -393746.532
10 0 59933  55422.000000  0    5346218.579   4314503.407    510833.955
10 0 59933  55542.000000  0    5356530.719   4095128.492   1406421.997
10 0 59933  55662.000000  0    5268731.905   3804833.094   2277245.594
10 0 59933  55782.000000  0    5083164.533   3450399.006   3107966.584
10 0 59933  55902.000000  0    4802024.715   3039719.066   3883958.893
10 0 59933  56022.000000  0    4429337.193   2581621.734   4591571.551
10 0 59933  56142.000000  0    3970894.746   2085679.694   5218369.994
10 0 59933  56262.000000  0    3434161.630   1562008.958   5753355.831
10 0 59933  56382.000000  0    2828143.754   1021059.792   6187156.149
10 0 59933  56502.000000  0    2163231.227    473406.090   6512180.683
10 0 59933  56622.000000  0    1451016.566    -70460.372   6722747.815
10 0 59933  56742.000000  0     704090.299   -600329.891   6815180.320
10 0 59933  56862.000000  0     -64183.622  -1106466.700   6787865.672
10 0 59933  56982.000000  0    -839907.136  -1579787.269   6641281.633
10 0 59933  57102.000000  0   -1608898.969  -2012023.454   6377987.353
10 0 59933  57222.000000  0   -2356951.858  -2395866.396   6002580.302
10 0 59933  57342.000000  0   -3070093.592  -2725090.686   5521623.275
10 0 59933  57462.000000  0   -3734852.037  -2994658.874   4943537.575
10 0 59933  57582.000000  0   -4338514.726  -3200801.012   4278459.493
10 0 59933  57702.000000  0   -4869377.060  -3341068.095   3538066.220
10 0 59933  57822.000000  0   -5316975.281  -3414358.588   2735373.585
10 0 59933  57942.000000  0   -5672300.203  -3420918.277   1884507.982
10 0 59933  58062.000000  0   -5927985.445  -3362312.533   1000453.747
10 0 59933  58182.000000  0   -6078463.934  -3241369.940     98782.512
10 0 59933  58302.000000  0   -6120089.646  -3062099.884   -804628.897
10 0 59933  58422.000000  0   -6051221.197  -2829585.949  -1693888.006
10 0 59933  58542.000000  0   -5872262.845  -2549856.829  -2553375.522
10 0 59933  58662.000000  0   -5585664.372  -2229739.895  -3368025.270
10 0 59933  58782.000000  0   -5195880.727  -1876701.192  -4123591.420
10 0 59933  58902.000000  0   -4709292.687  -1498675.780  -4806896.773
10 0 59933  59022.000000  0   -4134091.686  -1103892.910  -5406058.718
10 0 59933  59142.000000  0   -3480130.867   -700699.595  -5910688.447
10 0 59933  59262.000000  0   -2758747.559   -297387.279  -6312060.350
10 0 59933  59382.000000  0   -1982561.468     97974.900  -6603251.136
10 0 59933  59502.000000  0   -1165251.583    477696.647  -6779247.652
10 0 59933  59622.000000  0    -321317.561    834610.989  -6837023.284
10 0 59933  59742.000000  0     534171.819   1162205.964  -6775583.601
10 0 59933  59862.000000  0    1385839.930   1454739.292  -6595982.930
10 0 59933  59982.000000  0    2218273.276   1707337.563  -6301309.991
10 0 59933  60102.000000  0    3016295.323   1916076.915  -5896640.205
10 0 59933  60222.000000  0    3765239.559   2078043.543  -5388956.165
10 0 59933  60342.000000  0    4451217.448   2191374.018  -4787038.754
10 0 59933  60462.000000  0    5061379.615   2255275.054  -4101326.912
10 0 59933  60582.000000  0    5584162.668   2270021.037  -3343746.033
10 0 59933  60702.000000  0    6009516.579   2236929.477  -2527508.938
10 0 59933  60822.000000  0    6329109.519   2158314.871  -1666890.324
10 0 59933  60942.000000  0    6536501.622   2037421.129   -776976.784
10 0 59933  61062.000000  0    6627284.415   1878333.590    126600.820
10 0 59933  61182.000000  0    6599179.681   1685872.339   1027949.315
10 0 59933  61302.000000  0    6452096.397   1465470.710   1911198.894
10 0 59933  61422.000000  0    6188146.080   1223040.819   2760792.321
10 0 59933  61542.000000  0    5811610.902    964829.294   3561767.524
10 0 59933  61662.000000  0    5328868.791    697268.127   4300028.050
10 0 59933  61782.000000  0    4748276.175    426823.743   4962593.959
10 0 59933  61902.000000  0    4080014.781    159849.181   5537830.938
10 0 59933  62022.000000  0    3335902.343    -97559.242   6015653.154
10 0 59933  62142.000000  0    2529174.401   -339694.846   6387694.079
10 0 59933  62262.000000  0    1674243.641   -561361.877   6647447.121
10 0 59933  62382.000000  0     786438.663   -757983.503   6790374.761
10 0 59933  62502.000000  0    -118273.938   -925694.194   6813982.806
10 0 59933  62622.000000  0   -1023576.765  -1061414.578   6717860.020
10 0 59933  62742.000000  0   -1913094.857  -1162908.067   6503684.081
10 0 59933  62862.000000  0   -2770690.103  -1228817.390   6175193.382
10 0 59933  62982.000000  0   -3580753.055  -1258681.049   5738127.440
10 0 59933  63102.000000  0   -4328490.792  -1252930.612   5200134.006
10 0 59933  63222.000000  0   -5000203.147  -1212868.582   4570641.097
10 0 59933  63342.000000  0   -5583541.544  -1140625.864   3860695.992
10 0 59933  63462.000000  0   -6067744.148  -1039100.084   3082773.700
10 0 59933  63582.000000  0   -6443843.208   -911876.162   2250559.601
10 0 59933  63702.000000  0   -6704842.484   -763130.989   1378707.553
10 0 59933  63822.000000  0   -6845856.031   -597524.169    482575.279
10 0 59933  63942.000000  0   -6864204.016   -420077.594   -422054.249
10 0 59933  64062.000000  0   -6759464.702   -236046.780  -1319259.837
10 0 59933  64182.000000  0   -6533479.745    -50787.307  -2193271.009
10 0 59933  64302.000000  0   -6190315.814    130379.300  -3028751.160
10 0 59933  64422.000000  0   -5736182.311    302298.184  -3811073.079
10 0 59933  64542.000000  0   -5179305.524    460108.467  -4526576.701
10 0 59933  64662.000000  0   -4529766.230    599361.504  -5162804.884
10 0 59933  64782.000000  0   -3799304.589    716128.265  -5708713.376
10 0 59933  64902.000000  0   -3001098.034    807092.502  -6154853.034
10 0 59933  65022.000000  0   -2149517.122    869628.278  -6493521.105
10 0 59933  65142.000000  0   -1259865.262    901861.623  -6718883.108
10 0 59933  65262.000000  0    -348104.769    902714.993  -6827062.449
10 0 59933  65382.000000  0     569423.363    871933.409  -6816198.421
10 0 59933  65502.000000  0    1476283.940    810092.321  -6686476.599
10 0 59933  65622.000000  0    2356236.390    718587.193  -6440127.430
10 0 59933  65742.000000  0    3193519.838    599605.011  -6081391.710
10 0 59933  65862.000000  0    3973131.584    456078.009  -5616454.440
10 0 59933  65982.000000  0    4681094.160    291619.290  -5053348.593
10 0 59933  66102.000000  0    5304709.213    110442.908  -4401828.463
10 0 59933  66222.000000  0    5832792.742    -82731.627  -3673211.020
10 0 59933  66342.000000  0    6255885.006   -282788.367  -2880188.119
10 0 59933  66462.000000  0    6566432.445   -484335.494  -2036612.197
10 0 59933  66582.000000  0    6758935.921   -681834.739  -1157256.026
10 0 59933  66702.000000  0    6830059.670   -869736.065   -257552.132
10 0 59933  66822.000000  0    6778698.798  -1042614.960    646682.640
10 0 59933  66942.000000  0    6606002.431  -1195308.798   1539532.895
10 0 59933  67062.000000  0    6315351.936  -1323048.917   2405273.422
10 0 59933  67182.000000  0    5912292.792  -1421583.954   3228656.204
10 0 59933  67302.000000  0    5404422.904  -1487291.621   3995185.681
10 0 59933  67422.000000  0    4801241.346  -1517277.372   4691378.734
10 0 59933  67542.000000  0    4113960.963  -1509455.525   5305003.362
10 0 59933  67662.000000  0    3355290.891  -1462611.643   5825292.815
10 0 59933  67782.000000  0    2539192.313  -1376445.992   6243131.164
10 0 59933  67902.000000  0    1680615.155  -1251596.798   6551207.095
10 0 59933  68022.000000  0     795219.760  -1089643.157   6744136.692
10 0 59933  68142.000000  0    -100911.817   -893086.383   6818551.758
10 0 59933  68262.000000  0    -991568.076   -665311.217   6773153.613
10 0 59933  68382.000000  0   -1860699.913   -410527.670   6608733.845
10 0 59933  68502.000000  0   -2692708.332   -133693.587   6328161.372
10 0 59933  68622.000000  0   -3472724.052    159580.577   5936336.631
10 0 59933  68742.000000  0   -4186875.743    463143.181   5440112.001
10 0 59933  68862.000000  0   -4822541.812    770427.304   4848177.857
10 0 59933  68982.000000  0   -5368580.834   1074589.022   4170916.156
10 0 59933  69102.000000  0   -5815535.467   1368655.604   3420221.727
10 0 59933  69222.000000  0   -6155805.023   1645680.157   2609295.432
10 0 59933  69342.000000  0   -6383783.938   1898899.303   1752411.472
10 0 59933  69462.000000  0   -6495962.422   2121890.218    864662.565
10 0 59933  69582.000000  0   -6490985.145   2308723.482    -38313.339
10 0 59933  69702.000000  0   -6369665.654   2454106.399   -940617.329
99
